OBJECT_NAME,OBJECT_ID,EPOCH,MEAN_MOTION,ECCENTRICITY,INCLINATION,RA_OF_ASC_NODE,ARG_OF_PERICENTER,MEAN_ANOMALY,EPHEMERIS_TYPE,CLASSIFICATION_TYPE,NORAD_CAT_ID,ELEMENT_SET_NO,REV_AT_EPOCH,BSTAR,MEAN_MOTION_DOT,MEAN_MOTION_DDOT
STARLINK-31704,2024-076Y,2024-11-29T00:28:39.232128,15.40711967,.0001746,42.9994,87.3779,267.2590,92.8067,0,U,59586,999,3559,.1686E-2,.7081E-3,0
STARLINK-31770,2024-080A,2024-11-28T05:51:22.705056,15.40705539,.0002342,43.0033,170.5137,276.8532,83.2058,0,U,59601,999,3420,.31514E-4,.1013E-4,0
STARLINK-31778,2024-080B,2024-11-28T20:17:23.238240,15.40694810,.0001311,42.9963,167.2916,255.1399,104.9312,0,U,59602,999,3307,.87582E-4,.3356E-4,0
STARLINK-31776,2024-080C,2024-11-28T14:48:55.095840,15.40691812,.0002031,43.0011,168.1505,259.1392,100.9236,0,U,59603,999,3304,.59177E-4,.2168E-4,0
STARLINK-31765,2024-080D,2024-11-28T15:50:14.044992,15.40636553,.0003779,42.9993,168.4828,296.6080,63.4389,0,U,59604,999,3304,-.73539E-3,-.30842E-3,0
STARLINK-31767,2024-080E,2024-11-28T13:54:16.717824,15.40698723,.0001814,42.9996,168.7309,271.2927,88.7721,0,U,59605,999,3303,.47323E-4,.1674E-4,0
STARLINK-31782,2024-080F,2024-11-28T13:05:53.714112,15.40698465,.000283,43.0018,168.4739,280.9486,79.1052,0,U,59606,999,3303,.26872E-4,.818E-5,0
STARLINK-31755,2024-080G,2024-11-28T14:36:00.067104,15.40717375,.0001759,42.9993,168.0800,268.1836,91.8819,0,U,59607,999,3426,.52633E-5,-.84E-6,0
STARLINK-31585,2024-080H,2024-11-28T13:44:35.935296,15.40694671,.0002193,43.0013,168.6799,273.2438,86.8168,0,U,59608,999,3425,.83664E-4,.3192E-4,0
STARLINK-31667,2024-080J,2024-11-28T13:22:01.437312,15.40699811,.0002172,43.0023,168.5586,275.1922,84.8687,0,U,59609,999,3303,.53973E-4,.1951E-4,0
STARLINK-31729,2024-080K,2024-11-28T12:37:03.578304,15.40703486,.0001835,42.9984,169.1929,269.6083,90.4563,0,U,59610,999,3302,.38722E-4,.1314E-4,0
STARLINK-31448,2024-080L,2024-11-28T06:36:31.896288,15.40705632,.0003571,43.0047,170.7506,264.3572,95.6877,0,U,59611,999,3298,.58258E-4,.213E-4,0
STARLINK-31748,2024-080M,2024-11-28T21:53:58.443072,15.40686628,.0001476,43.0032,166.9378,282.5931,77.4760,0,U,59612,999,3425,.16658E-5,-.234E-5,0
STARLINK-31746,2024-080N,2024-11-28T13:41:10.418208,15.40712732,.0001592,43.0002,167.7636,273.4002,86.6673,0,U,59613,999,3426,.13758E-4,.271E-5,0
STARLINK-31762,2024-080P,2024-11-28T13:57:30.970944,15.40700146,.0003139,43.0032,168.7442,265.0712,94.9787,0,U,59614,999,3425,.32737E-4,.1063E-4,0
STARLINK-31761,2024-080Q,2024-11-28T21:07:17.249664,15.40695318,.0002958,43.0041,162.2980,263.7245,96.3275,0,U,59615,999,3313,.21184E-4,.581E-5,0
STARLINK-31768,2024-080R,2024-11-28T14:00:46.974528,15.40680058,.0000965,43.0008,168.7637,264.2122,95.8624,0,U,59616,999,3303,-.43122E-4,-.2103E-4,0
STARLINK-31769,2024-080S,2024-11-28T13:34:55.451712,15.40703736,.0001819,43.0000,168.6221,272.2856,87.7792,0,U,59617,999,3425,.31582E-4,.1016E-4,0
STARLINK-31784,2024-080T,2024-11-28T13:12:20.699712,15.40704033,.0001515,43.0010,168.5047,263.3362,96.7322,0,U,59618,999,3420,.35332E-4,.1173E-4,0
STARLINK-31777,2024-080U,2024-11-28T22:29:17.269152,15.40668644,.0001152,42.9982,166.2436,236.6789,123.3957,0,U,59619,999,3431,-.8052E-4,-.3661E-4,0
STARLINK-31771,2024-080V,2024-11-28T13:29:25.488384,15.44430957,.0002063,43.0002,165.1098,281.3991,78.6635,0,U,59620,999,3424,-.47576E-6,-.34E-5,0
STARLINK-31758,2024-080W,2024-11-28T14:20:06.516960,15.40677081,.000115,42.9994,168.8701,303.2953,56.7793,0,U,59621,999,3420,.47313E-5,-.106E-5,0
STARLINK-31774,2024-080X,2024-11-28T12:40:17.789088,15.40691210,.0001299,42.9996,169.2064,270.8459,89.2249,0,U,59622,999,3302,.27691E-4,.853E-5,0
STARLINK-31763,2024-080Y,2024-11-28T13:25:14.470464,15.40708166,.0001665,42.9999,168.5735,266.9082,93.1584,0,U,59623,999,3424,.73891E-4,.2785E-4,0
STARLINK-31749,2024-082A,2024-11-29T02:31:38.479872,15.40711676,.0001846,42.9977,258.9961,269.6409,90.4236,0,U,59631,999,3321,-.87324E-5,-.669E-5,0
STARLINK-31781,2024-082B,2024-11-29T03:44:36.828384,15.40733392,.0001783,43.0001,244.3509,271.2147,88.8505,0,U,59632,999,3364,.34544E-3,.14169E-3,0
STARLINK-31541,2024-082C,2024-11-28T05:32:53.111328,15.40704876,.0003119,43.0074,263.6050,265.2324,94.8176,0,U,59633,999,3355,-.58687E-4,-.2756E-4,0
STARLINK-31797,2024-082D,2024-11-29T02:05:52.056384,15.40661727,.0001588,43.0046,258.8530,270.0920,89.9755,0,U,59634,999,3348,.38153E-4,.1288E-4,0
STARLINK-31798,2024-082E,2024-11-28T19:10:27.966720,15.40708434,.0001663,43.0029,260.1209,254.2260,105.8414,0,U,59635,999,3345,.40109E-4,.1373E-4,0
STARLINK-31802,2024-082F,2024-11-28T03:49:51.347712,15.40686978,.0001267,43.0036,263.9276,295.2321,64.8404,0,U,59636,999,3335,.37309E-4,.1255E-4,0
