STARLINK-31704          
1 59586U 24076Y   24334.01989852  .00070810  00000+0  16860-2 0  9998
2 59586  42.9994  87.3779 0001746 267.2590  92.8067 15.40711967 35597
STARLINK-31770          
1 59601U 24080A   24333.24401279  .00001013  00000+0  31514-4 0  9991
2 59601  43.0033 170.5137 0002342 276.8532  83.2058 15.40705539 34208
STARLINK-31778          
1 59602U 24080B   24333.84540785  .00003356  00000+0  87582-4 0  9992
2 59602  42.9963 167.2916 0001311 255.1399 104.9312 15.40694810 33070
STARLINK-31776          
1 59603U 24080C   24333.61730435  .00002168  00000+0  59177-4 0  9990
2 59603  43.0011 168.1505 0002031 259.1392 100.9236 15.40691812 33045
STARLINK-31765          
1 59604U 24080D   24333.65988478 -.00030842  00000+0 -73539-3 0  9996
2 59604  42.9993 168.4828 0003779 296.6080  63.4389 15.40636553 33047
STARLINK-31767          
1 59605U 24080E   24333.57936016  .00001674  00000+0  47323-4 0  9991
2 59605  42.9996 168.7309 0001814 271.2927  88.7721 15.40698723 33031
STARLINK-31782          
1 59606U 24080F   24333.54576058  .00000818  00000+0  26872-4 0  9990
2 59606  43.0018 168.4739 0002830 280.9486  79.1052 15.40698465 33033
STARLINK-31755          
1 59607U 24080G   24333.60833411 -.00000084  00000+0  52633-5 0  9998
2 59607  42.9993 168.0800 0001759 268.1836  91.8819 15.40717375 34265
STARLINK-31585          
1 59608U 24080H   24333.57263814  .00003192  00000+0  83664-4 0  9998
2 59608  43.0013 168.6799 0002193 273.2438  86.8168 15.40694671 34255
STARLINK-31667          
1 59609U 24080J   24333.55696108  .00001951  00000+0  53973-4 0  9994
2 59609  43.0023 168.5586 0002172 275.1922  84.8687 15.40699811 33036
STARLINK-31729          
1 59610U 24080K   24333.52573586  .00001314  00000+0  38722-4 0  9995
2 59610  42.9984 169.1929 0001835 269.6083  90.4563 15.40703486 33020
STARLINK-31448          
1 59611U 24080L   24333.27536917  .00002130  00000+0  58258-4 0  9998
2 59611  43.0047 170.7506 0003571 264.3572  95.6877 15.40705632 32980
STARLINK-31748          
1 59612U 24080M   24333.91248198 -.00000234  00000+0  16658-5 0  9994
2 59612  43.0032 166.9378 0001476 282.5931  77.4760 15.40686628 34256
STARLINK-31746          
1 59613U 24080N   24333.57025947  .00000271  00000+0  13758-4 0  9999
2 59613  43.0002 167.7636 0001592 273.4002  86.6673 15.40712732 34269
STARLINK-31762          
1 59614U 24080P   24333.58160846  .00001063  00000+0  32737-4 0  9997
2 59614  43.0032 168.7442 0003139 265.0712  94.9787 15.40700146 34256
STARLINK-31761          
1 59615U 24080Q   24333.88006076  .00000581  00000+0  21184-4 0  9993
2 59615  43.0041 162.2980 0002958 263.7245  96.3275 15.40695318 33135
STARLINK-31768          
1 59616U 24080R   24333.58387702 -.00002103  00000+0 -43122-4 0  9999
2 59616  43.0008 168.7637 0000965 264.2122  95.8624 15.40680058 33031
STARLINK-31769          
1 59617U 24080S   24333.56591958  .00001016  00000+0  31582-4 0  9995
2 59617  43.0000 168.6221 0001819 272.2856  87.7792 15.40703736 34254
STARLINK-31784          
1 59618U 24080T   24333.55023958  .00001173  00000+0  35332-4 0  9996
2 59618  43.0010 168.5047 0001515 263.3362  96.7322 15.40704033 34202
STARLINK-31777          
1 59619U 24080U   24333.93700543 -.00003661  00000+0 -80520-4 0  9996
2 59619  42.9982 166.2436 0001152 236.6789 123.3957 15.40668644 34319
STARLINK-31771          
1 59620U 24080V   24333.56210056 -.00000340  00000+0 -47576-6 0  9999
2 59620  43.0002 165.1098 0002063 281.3991  78.6635 15.44430957 34247
STARLINK-31758          
1 59621U 24080W   24333.59729765 -.00000106  00000+0  47313-5 0  9992
2 59621  42.9994 168.8701 0001150 303.2953  56.7793 15.40677081 34200
STARLINK-31774          
1 59622U 24080X   24333.52798367  .00000853  00000+0  27691-4 0  9994
2 59622  42.9996 169.2064 0001299 270.8459  89.2249 15.40691210 33020
STARLINK-31763          
1 59623U 24080Y   24333.55919526  .00002785  00000+0  73891-4 0  9999
2 59623  42.9999 168.5735 0001665 266.9082  93.1584 15.40708166 34246
STARLINK-31749          
1 59631U 24082A   24334.10530648 -.00000669  00000+0 -87324-5 0  9994
2 59631  42.9977 258.9961 0001846 269.6409  90.4236 15.40711676 33210
STARLINK-31781          
1 59632U 24082B   24334.15598181  .00014169  00000+0  34544-3 0  9998
2 59632  43.0001 244.3509 0001783 271.2147  88.8505 15.40733392 33642
STARLINK-31541          
1 59633U 24082C   24333.23117027 -.00002756  00000+0 -58687-4 0  9999
2 59633  43.0074 263.6050 0003119 265.2324  94.8176 15.40704876 33559
STARLINK-31797          
1 59634U 24082D   24334.08740806  .00001288  00000+0  38153-4 0  9994
2 59634  43.0046 258.8530 0001588 270.0920  89.9755 15.40661727 33489
STARLINK-31798          
1 59635U 24082E   24333.79893480  .00001373  00000+0  40109-4 0  9998
2 59635  43.0029 260.1209 0001663 254.2260 105.8414 15.40708434 33459
STARLINK-31802          
1 59636U 24082F   24333.15962208  .00001255  00000+0  37309-4 0  9991
2 59636  43.0036 263.9276 0001267 295.2321  64.8404 15.40686978 33356
